<?xml version="1.0" encoding="UTF-8"?>
<ndm xmlns:xsi="http://www.w3.org/2001/XMLSchema-instance" xsi:noNamespaceSchemaLocation="https://sanaregistry.org/r/ndmxml_unqualified/ndmxml-2.0.0-master-2.0.xsd">
<omm id="CCSDS_OMM_VERS" version="2.0">
<header><CREATION_DATE/><ORIGINATOR/></header><body><segment><metadata><OBJECT_NAME>KUIPER-00104</OBJECT_NAME><OBJECT_ID>2025-171L</OBJECT_ID><CENTER_NAME>EARTH</CENTER_NAME><REF_FRAME>TEME</REF_FRAME><TIME_SYSTEM>UTC</TIME_SYSTEM><MEAN_ELEMENT_THEORY>SGP4</MEAN_ELEMENT_THEORY></metadata><data><meanElements><EPOCH>2025-10-03T00:44:52.750176</EPOCH><MEAN_MOTION>15.36896155</MEAN_MOTION><ECCENTRICITY>.00034239</ECCENTRICITY><INCLINATION>51.8758</INCLINATION><RA_OF_ASC_NODE>151.3799</RA_OF_ASC_NODE><ARG_OF_PERICENTER>324.9206</ARG_OF_PERICENTER><MEAN_ANOMALY>35.1555</MEAN_ANOMALY></meanElements><tleParameters><EPHEMERIS_TYPE>0</EPHEMERIS_TYPE><CLASSIFICATION_TYPE>U</CLASSIFICATION_TYPE><NORAD_CAT_ID>65142</NORAD_CAT_ID><ELEMENT_SET_NO>999</ELEMENT_SET_NO><REV_AT_EPOCH>931</REV_AT_EPOCH><BSTAR>.15171529E-2</BSTAR><MEAN_MOTION_DOT>.5561E-3</MEAN_MOTION_DOT><MEAN_MOTION_DDOT>0</MEAN_MOTION_DDOT></tleParameters></data></segment></body></omm>
<omm id="CCSDS_OMM_VERS" version="2.0">
<header><CREATION_DATE/><ORIGINATOR/></header><body><segment><metadata><OBJECT_NAME>KUIPER-00105</OBJECT_NAME><OBJECT_ID>2025-171M</OBJECT_ID><CENTER_NAME>EARTH</CENTER_NAME><REF_FRAME>TEME</REF_FRAME><TIME_SYSTEM>UTC</TIME_SYSTEM><MEAN_ELEMENT_THEORY>SGP4</MEAN_ELEMENT_THEORY></metadata><data><meanElements><EPOCH>2025-10-03T08:00:01.999872</EPOCH><MEAN_MOTION>15.29199992</MEAN_MOTION><ECCENTRICITY>.00072385</ECCENTRICITY><INCLINATION>51.8795</INCLINATION><RA_OF_ASC_NODE>149.9355</RA_OF_ASC_NODE><ARG_OF_PERICENTER>306.4725</ARG_OF_PERICENTER><MEAN_ANOMALY>256.0407</MEAN_ANOMALY></meanElements><tleParameters><EPHEMERIS_TYPE>0</EPHEMERIS_TYPE><CLASSIFICATION_TYPE>U</CLASSIFICATION_TYPE><NORAD_CAT_ID>65143</NORAD_CAT_ID><ELEMENT_SET_NO>999</ELEMENT_SET_NO><REV_AT_EPOCH>573</REV_AT_EPOCH><BSTAR>-.23087475E-1</BSTAR><MEAN_MOTION_DOT>-.620003E-2</MEAN_MOTION_DOT><MEAN_MOTION_DDOT>0</MEAN_MOTION_DDOT></tleParameters></data></segment></body></omm>
<omm id="CCSDS_OMM_VERS" version="2.0">
<header><CREATION_DATE/><ORIGINATOR/></header><body><segment><metadata><OBJECT_NAME>KUIPER-00106</OBJECT_NAME><OBJECT_ID>2025-171N</OBJECT_ID><CENTER_NAME>EARTH</CENTER_NAME><REF_FRAME>TEME</REF_FRAME><TIME_SYSTEM>UTC</TIME_SYSTEM><MEAN_ELEMENT_THEORY>SGP4</MEAN_ELEMENT_THEORY></metadata><data><meanElements><EPOCH>2025-10-03T08:00:01.999872</EPOCH><MEAN_MOTION>15.18093594</MEAN_MOTION><ECCENTRICITY>.00061235</ECCENTRICITY><INCLINATION>51.8892</INCLINATION><RA_OF_ASC_NODE>151.1072</RA_OF_ASC_NODE><ARG_OF_PERICENTER>299.2114</ARG_OF_PERICENTER><MEAN_ANOMALY>20.6161</MEAN_ANOMALY></meanElements><tleParameters><EPHEMERIS_TYPE>0</EPHEMERIS_TYPE><CLASSIFICATION_TYPE>U</CLASSIFICATION_TYPE><NORAD_CAT_ID>65144</NORAD_CAT_ID><ELEMENT_SET_NO>999</ELEMENT_SET_NO><REV_AT_EPOCH>574</REV_AT_EPOCH><BSTAR>-.13189894E-1</BSTAR><MEAN_MOTION_DOT>-.263294E-2</MEAN_MOTION_DOT><MEAN_MOTION_DDOT>0</MEAN_MOTION_DDOT></tleParameters></data></segment></body></omm>
<omm id="CCSDS_OMM_VERS" version="2.0">
<header><CREATION_DATE/><ORIGINATOR/></header><body><segment><metadata><OBJECT_NAME>KUIPER-00107</OBJECT_NAME><OBJECT_ID>2025-171P</OBJECT_ID><CENTER_NAME>EARTH</CENTER_NAME><REF_FRAME>TEME</REF_FRAME><TIME_SYSTEM>UTC</TIME_SYSTEM><MEAN_ELEMENT_THEORY>SGP4</MEAN_ELEMENT_THEORY></metadata><data><meanElements><EPOCH>2025-10-03T02:12:38.027520</EPOCH><MEAN_MOTION>15.37032127</MEAN_MOTION><ECCENTRICITY>.00044403</ECCENTRICITY><INCLINATION>51.8750</INCLINATION><RA_OF_ASC_NODE>151.0397</RA_OF_ASC_NODE><ARG_OF_PERICENTER>327.5818</ARG_OF_PERICENTER><MEAN_ANOMALY>32.4895</MEAN_ANOMALY></meanElements><tleParameters><EPHEMERIS_TYPE>0</EPHEMERIS_TYPE><CLASSIFICATION_TYPE>U</CLASSIFICATION_TYPE><NORAD_CAT_ID>65145</NORAD_CAT_ID><ELEMENT_SET_NO>999</ELEMENT_SET_NO><REV_AT_EPOCH>933</REV_AT_EPOCH><BSTAR>.19042174E-2</BSTAR><MEAN_MOTION_DOT>.7035E-3</MEAN_MOTION_DOT><MEAN_MOTION_DDOT>0</MEAN_MOTION_DDOT></tleParameters></data></segment></body></omm>
<omm id="CCSDS_OMM_VERS" version="2.0">
<header><CREATION_DATE/><ORIGINATOR/></header><body><segment><metadata><OBJECT_NAME>KUIPER-00108</OBJECT_NAME><OBJECT_ID>2025-171Q</OBJECT_ID><CENTER_NAME>EARTH</CENTER_NAME><REF_FRAME>TEME</REF_FRAME><TIME_SYSTEM>UTC</TIME_SYSTEM><MEAN_ELEMENT_THEORY>SGP4</MEAN_ELEMENT_THEORY></metadata><data><meanElements><EPOCH>2025-10-03T00:59:13.966368</EPOCH><MEAN_MOTION>15.36752434</MEAN_MOTION><ECCENTRICITY>.00047781</ECCENTRICITY><INCLINATION>51.8768</INCLINATION><RA_OF_ASC_NODE>151.4443</RA_OF_ASC_NODE><ARG_OF_PERICENTER>319.0671</ARG_OF_PERICENTER><MEAN_ANOMALY>40.9957</MEAN_ANOMALY></meanElements><tleParameters><EPHEMERIS_TYPE>0</EPHEMERIS_TYPE><CLASSIFICATION_TYPE>U</CLASSIFICATION_TYPE><NORAD_CAT_ID>65146</NORAD_CAT_ID><ELEMENT_SET_NO>999</ELEMENT_SET_NO><REV_AT_EPOCH>932</REV_AT_EPOCH><BSTAR>.22845883E-2</BSTAR><MEAN_MOTION_DOT>.83873E-3</MEAN_MOTION_DOT><MEAN_MOTION_DDOT>0</MEAN_MOTION_DDOT></tleParameters></data></segment></body></omm>
<omm id="CCSDS_OMM_VERS" version="2.0">
<header><CREATION_DATE/><ORIGINATOR/></header><body><segment><metadata><OBJECT_NAME>KUIPER-00109</OBJECT_NAME><OBJECT_ID>2025-171R</OBJECT_ID><CENTER_NAME>EARTH</CENTER_NAME><REF_FRAME>TEME</REF_FRAME><TIME_SYSTEM>UTC</TIME_SYSTEM><MEAN_ELEMENT_THEORY>SGP4</MEAN_ELEMENT_THEORY></metadata><data><meanElements><EPOCH>2025-10-03T02:02:48.531552</EPOCH><MEAN_MOTION>15.37270318</MEAN_MOTION><ECCENTRICITY>.00054493</ECCENTRICITY><INCLINATION>51.8746</INCLINATION><RA_OF_ASC_NODE>150.9907</RA_OF_ASC_NODE><ARG_OF_PERICENTER>310.0936</ARG_OF_PERICENTER><MEAN_ANOMALY>49.9572</MEAN_ANOMALY></meanElements><tleParameters><EPHEMERIS_TYPE>0</EPHEMERIS_TYPE><CLASSIFICATION_TYPE>U</CLASSIFICATION_TYPE><NORAD_CAT_ID>65147</NORAD_CAT_ID><ELEMENT_SET_NO>999</ELEMENT_SET_NO><REV_AT_EPOCH>932</REV_AT_EPOCH><BSTAR>.18542918E-2</BSTAR><MEAN_MOTION_DOT>.69025E-3</MEAN_MOTION_DOT><MEAN_MOTION_DDOT>0</MEAN_MOTION_DDOT></tleParameters></data></segment></body></omm>
<omm id="CCSDS_OMM_VERS" version="2.0">
<header><CREATION_DATE/><ORIGINATOR/></header><body><segment><metadata><OBJECT_NAME>KUIPER-00110</OBJECT_NAME><OBJECT_ID>2025-171S</OBJECT_ID><CENTER_NAME>EARTH</CENTER_NAME><REF_FRAME>TEME</REF_FRAME><TIME_SYSTEM>UTC</TIME_SYSTEM><MEAN_ELEMENT_THEORY>SGP4</MEAN_ELEMENT_THEORY></metadata><data><meanElements><EPOCH>2025-10-03T08:00:01.999872</EPOCH><MEAN_MOTION>15.23517401</MEAN_MOTION><ECCENTRICITY>.00077038</ECCENTRICITY><INCLINATION>51.8797</INCLINATION><RA_OF_ASC_NODE>150.4538</RA_OF_ASC_NODE><ARG_OF_PERICENTER>319.6934</ARG_OF_PERICENTER><MEAN_ANOMALY>340.0208</MEAN_ANOMALY></meanElements><tleParameters><EPHEMERIS_TYPE>0</EPHEMERIS_TYPE><CLASSIFICATION_TYPE>U</CLASSIFICATION_TYPE><NORAD_CAT_ID>65148</NORAD_CAT_ID><ELEMENT_SET_NO>999</ELEMENT_SET_NO><REV_AT_EPOCH>572</REV_AT_EPOCH><BSTAR>-.25125572E-1</BSTAR><MEAN_MOTION_DOT>-.570913E-2</MEAN_MOTION_DOT><MEAN_MOTION_DDOT>0</MEAN_MOTION_DDOT></tleParameters></data></segment></body></omm>
<omm id="CCSDS_OMM_VERS" version="2.0">
<header><CREATION_DATE/><ORIGINATOR/></header><body><segment><metadata><OBJECT_NAME>KUIPER-00111</OBJECT_NAME><OBJECT_ID>2025-171T</OBJECT_ID><CENTER_NAME>EARTH</CENTER_NAME><REF_FRAME>TEME</REF_FRAME><TIME_SYSTEM>UTC</TIME_SYSTEM><MEAN_ELEMENT_THEORY>SGP4</MEAN_ELEMENT_THEORY></metadata><data><meanElements><EPOCH>2025-10-03T08:00:01.999872</EPOCH><MEAN_MOTION>15.13423125</MEAN_MOTION><ECCENTRICITY>.00058905</ECCENTRICITY><INCLINATION>51.8859</INCLINATION><RA_OF_ASC_NODE>151.8883</RA_OF_ASC_NODE><ARG_OF_PERICENTER>326.7886</ARG_OF_PERICENTER><MEAN_ANOMALY>29.4437</MEAN_ANOMALY></meanElements><tleParameters><EPHEMERIS_TYPE>0</EPHEMERIS_TYPE><CLASSIFICATION_TYPE>U</CLASSIFICATION_TYPE><NORAD_CAT_ID>65149</NORAD_CAT_ID><ELEMENT_SET_NO>999</ELEMENT_SET_NO><REV_AT_EPOCH>290</REV_AT_EPOCH><BSTAR>-.17601776E-2</BSTAR><MEAN_MOTION_DOT>-.32011E-3</MEAN_MOTION_DOT><MEAN_MOTION_DDOT>0</MEAN_MOTION_DDOT></tleParameters></data></segment></body></omm>

</ndm>
