KUIPER-00104            
1 65142U 25171L   25276.03116609  .00055610  00000+0  15172-2 0  9996
2 65142  51.8758 151.3799 0003423 324.9206  35.1555 15.36896155  9313
KUIPER-00105            
1 65143U 25171M   25276.33335648 -.00620003  00000+0 -23087-1 0  9995
2 65143  51.8795 149.9355 0007238 306.4725 256.0407 15.29199992  5734
KUIPER-00106            
1 65144U 25171N   25276.33335648 -.00263294  00000+0 -13190-1 0  9995
2 65144  51.8892 151.1072 0006123 299.2114  20.6161 15.18093594  5749
KUIPER-00107            
1 65145U 25171P   25276.09210680  .00070350  00000+0  19042-2 0  9997
2 65145  51.8750 151.0397 0004440 327.5818  32.4895 15.37032127  9338
KUIPER-00108            
1 65146U 25171Q   25276.04113387  .00083873  00000+0  22846-2 0  9999
2 65146  51.8768 151.4443 0004778 319.0671  40.9957 15.36752434  9322
KUIPER-00109            
1 65147U 25171R   25276.08528393  .00069025  00000+0  18543-2 0  9993
2 65147  51.8746 150.9907 0005449 310.0936  49.9572 15.37270318  9328
KUIPER-00110            
1 65148U 25171S   25276.33335648 -.00570913  00000+0 -25126-1 0  9990
2 65148  51.8797 150.4538 0007703 319.6934 340.0208 15.23517401  5721
KUIPER-00111            
1 65149U 25171T   25276.33335648 -.00032011  00000+0 -17602-2 0  9994
2 65149  51.8859 151.8883 0005890 326.7886  29.4437 15.13423125  2906
